format  = 'OEF1.1'       ! file format
rectype = 'ML'           ! record type (1L/ML)
refsys  = ECLM J2000     ! default reference system
END_OF_HEADER
mult_1
! Attributable elements: R.A., DEC, R.A.dot, DECdot, r, rdot, auxiliary information on observer needed
 ATT  245.6807219205098  -16.4140771442683   -0.0544140778319   -0.4004346763883    0.6695746272536   -0.0059042562490
 MJD     53085.283475812 TDT
 MAG  17.633  0.150
! RMS    1.18911E-04   1.29211E-04   7.15623E-05   6.94244E-05   1.59979E-02   1.89916E-04
! EIG   1.12497E-06   1.17273E-06   1.29596E-06   1.35099E-06   1.30491E-04   1.59985E-02
! WEA   0.00010   0.00002  -0.00003   0.00000  -0.99996   0.00863
 COV   1.413975967009774E-08  3.172289524979849E-09 -2.246872593414428E-09
 COV  -1.205673848805759E-11 -1.427816750654612E-06  1.054837799124321E-08
 COV   1.669558556705174E-08 -5.762007332005465E-10 -2.621963533384456E-09
 COV  -3.163423277851817E-07 -1.082619225318007E-08  5.121166013018277E-09
 COV  -6.964018944292302E-11  3.933100603833057E-07 -3.277605686618603E-09
 COV   4.819740933102059E-09 -5.999672611492116E-08  3.842444965339069E-09
 COV   2.559323168882730E-04 -2.207629001008002E-06  3.606821409894272E-08
 NOR   1.669385354148377E+08 -2.161875027703475E+03  1.504492216316013E+06
 NOR   6.227542676531677E+04  1.078333534352052E+06  1.730881507166316E+07
 NOR   1.814137382973047E+08 -6.110390375299687E+04  2.138084015012450E+06
 NOR   1.467067647513433E+06  1.440151192024728E+08  2.214504196420719E+08
 NOR  -5.425125834298547E+03 -3.439704555127193E+05 -1.387444015503218E+06
 NOR   2.406208010705636E+08 -3.311896562468800E+05 -4.528207159572660E+07
 NOR   2.817640662505216E+04  1.853607650544644E+06  1.840423760695563E+08
mult_2
! Attributable elements: R.A., DEC, R.A.dot, DECdot, r, rdot, auxiliary information on observer needed
 ATT  245.6806868910442  -16.4141994104558   -0.0544080257670   -0.4004106986235    0.6730855878679   -0.0058059268628
 MJD     53085.283475812 TDT
 MAG  17.621  0.150
! RMS    1.18986E-04   1.29094E-04   7.15783E-05   6.94450E-05   1.60282E-02   1.88339E-04
! EIG   1.12491E-06   1.17267E-06   1.29595E-06   1.35098E-06   1.31146E-04   1.60288E-02
! WEA   0.00010   0.00002  -0.00003   0.00000  -0.99996   0.00843
 COV   1.415777316279950E-08  3.115093268246116E-09 -2.253488804337720E-09
 COV  -1.376148135675425E-11 -1.432148156980475E-06  1.030280727204570E-08
 COV   1.666536303099920E-08 -5.623494267480996E-10 -2.630152414193242E-09
 COV  -3.064471733458894E-07 -1.103534758874670E-08  5.123459501868802E-09
 COV  -6.916181652865629E-11  3.949744505691001E-07 -3.214189362465603E-09
 COV   4.822607261712954E-09 -5.988525201599569E-08  3.855668322779905E-09
 COV   2.569026898361454E-04 -2.166748880375482E-06  3.547154896264404E-08
 NOR   1.669384054328227E+08 -2.126495327447839E+03  1.461991122759767E+06
 NOR   6.227161925901923E+04  1.073607323405697E+06  1.721770876451781E+07
 NOR   1.814139246959808E+08 -6.111083525400085E+04  2.091880844341872E+06
 NOR   1.425347192253483E+06  1.432724306215349E+08  2.214766597925549E+08
 NOR  -5.402153899773254E+03 -3.442754017664979E+05 -1.404127589613410E+06
 NOR   2.406499280782386E+08 -3.224787159919292E+05 -4.522415998484149E+07
 NOR   2.717431576502005E+04  1.795375649483335E+06  1.822208201570349E+08
mult_3
! Attributable elements: R.A., DEC, R.A.dot, DECdot, r, rdot, auxiliary information on observer needed
 ATT  245.6806520865941  -16.4143213571788   -0.0544019980034   -0.4003866162325    0.6765622086370   -0.0057059311612
 MJD     53085.283475812 TDT
 MAG  17.608  0.150
! RMS    1.19060E-04   1.28983E-04   7.15941E-05   6.94657E-05   1.60585E-02   1.86779E-04
! EIG   1.12484E-06   1.17260E-06   1.29594E-06   1.35097E-06   1.31794E-04   1.60591E-02
! WEA   0.00010   0.00002  -0.00003   0.00000  -0.99997   0.00824
 COV   1.417523599836450E-08  3.059087237387734E-09 -2.259949722891811E-09
 COV  -1.544232339622146E-11 -1.436439069715877E-06  1.005527471163563E-08
 COV   1.663656498304625E-08 -5.487844068503878E-10 -2.638245650406657E-09
 COV  -2.967612653492477E-07 -1.123823589427697E-08  5.125709538241503E-09
 COV  -6.868735272813341E-11  3.966278857674853E-07 -3.150019702926179E-09
 COV   4.825480731697745E-09 -5.977982430120873E-08  3.868880803321082E-09
 COV   2.578765795836129E-04 -2.125513849120953E-06  3.488654205838472E-08
 NOR   1.669382853622256E+08 -2.091815197777053E+03  1.419474652049208E+06
 NOR   6.226798648448553E+04  1.068897048039519E+06  1.712844213901778E+07
 NOR   1.814141154898521E+08 -6.111770094523308E+04  2.045662082012862E+06
 NOR   1.384232073074340E+06  1.425447425220919E+08  2.215030208549733E+08
 NOR  -5.379669688231161E+03 -3.445581203705230E+05 -1.420703320299281E+06
 NOR   2.406791819334550E+08 -3.137982368503210E+05 -4.516913705855370E+07
 NOR   2.621106801632389E+04  1.738462476082715E+06  1.804456593386403E+08
mult_4
! Attributable elements: R.A., DEC, R.A.dot, DECdot, r, rdot, auxiliary information on observer needed
 ATT  245.6806175455366  -16.4144429637777   -0.0543960035494   -0.4003624259479    0.6799981622703   -0.0056042273361
 MJD     53085.283475812 TDT
 MAG  17.602  0.150
! RMS    1.19131E-04   1.28877E-04   7.16094E-05   6.94864E-05   1.60889E-02   1.85237E-04
! EIG   1.12478E-06   1.17254E-06   1.29593E-06   1.35096E-06   1.32434E-04   1.60894E-02
! WEA   0.00010   0.00002  -0.00003   0.00000  -0.99997   0.00805
 COV   1.419213425043947E-08  3.004337456054609E-09 -2.266248295994759E-09
 COV  -1.709962935396267E-11 -1.440682186584474E-06  9.805741472790792E-09
 COV   1.660915449083113E-08 -5.355244217046796E-10 -2.646242162378953E-09
 COV  -2.872949070860612E-07 -1.143477413333683E-08  5.127913287141185E-09
 COV  -6.821674710753202E-11  3.982678467589565E-07 -3.085079306379415E-09
 COV   4.828361131707270E-09 -5.968015748380197E-08  3.882043623647399E-09
 COV   2.588518576972352E-04 -2.083901224439385E-06  3.431285191094180E-08
 NOR   1.669381756750432E+08 -2.057881527182803E+03  1.376939921228318E+06
 NOR   6.226453663670112E+04  1.064205657210544E+06  1.704112513947958E+07
 NOR   1.814143107553574E+08 -6.112448799341971E+04  1.999424704606785E+06
 NOR   1.343726302472223E+06  1.418329877954443E+08  2.215295053131398E+08
 NOR  -5.357706044425417E+03 -3.448195001147485E+05 -1.437180121035138E+06
 NOR   2.407085650145986E+08 -3.051487743234330E+05 -4.511735624431702E+07
 NOR   2.528571702262043E+04  1.682857005906428E+06  1.787187154867894E+08
mult_5
! Attributable elements: R.A., DEC, R.A.dot, DECdot, r, rdot, auxiliary information on observer needed
 ATT  245.6805836263358  -16.4145630774716   -0.0543901071407   -0.4003383515081    0.6833553809369   -0.0055017478723
 MJD     53085.283475812 TDT
 MAG  17.596  0.150
! RMS    1.19199E-04   1.28776E-04   7.16244E-05   6.95070E-05   1.61188E-02   1.83726E-04
! EIG   1.12472E-06   1.17248E-06   1.29592E-06   1.35096E-06   1.33058E-04   1.61193E-02
! WEA   0.00010   0.00002  -0.00003   0.00000  -0.99997   0.00786
 COV   1.420830177301312E-08  2.951411559221189E-09 -2.272319990785189E-09
 COV  -1.871869425143773E-11 -1.444830273796048E-06  9.556518687528107E-09
 COV   1.658333331932000E-08 -5.227099843290169E-10 -2.654067195967991E-09
 COV  -2.781451983683717E-07 -1.162311414747156E-08  5.130047638949906E-09
 COV  -6.775427545837703E-11  3.998763654284283E-07 -3.019965408794426E-09
 COV   4.831221297589040E-09 -5.958681117798126E-08  3.894992215322730E-09
 COV   2.598169924464207E-04 -2.042280434929734E-06  3.375528937790676E-08
 NOR   1.669380777732125E+08 -2.025051954744855E+03  1.334780434582581E+06
 NOR   6.226133276819378E+04  1.059579941470355E+06  1.695667494730783E+07
 NOR   1.814145086925536E+08 -6.113114403310637E+04  1.953596568661903E+06
 NOR   1.304204210184604E+06  1.411446285023413E+08  2.215558673638359E+08
 NOR  -5.336498232159462E+03 -3.450583842002663E+05 -1.453417675375583E+06
 NOR   2.407378043076920E+08 -2.966110483021679E+05 -4.506964935557942E+07
 NOR   2.440546818864106E+04  1.629050244723018E+06  1.770575089746713E+08
mult_6
! Attributable elements: R.A., DEC, R.A.dot, DECdot, r, rdot, auxiliary information on observer needed
 ATT  245.6805500439897  -16.4146828222193   -0.0543842619212   -0.4003141620232    0.6866595219297   -0.0053975043209
 MJD     53085.283475812 TDT
 MAG  17.583  0.150
! RMS    1.19264E-04   1.28681E-04   7.16389E-05   6.95276E-05   1.61486E-02   1.82231E-04
! EIG   1.12466E-06   1.17241E-06   1.29591E-06   1.35095E-06   1.33672E-04   1.61491E-02
! WEA   0.00010   0.00002  -0.00003   0.00000  -0.99997   0.00767
 COV   1.422388529574456E-08  2.899860905306699E-09 -2.278217140629720E-09
 COV  -2.031566057037251E-11 -1.448915038939116E-06  9.305228096786304E-09
 COV   1.655880098813420E-08 -5.102355218535240E-10 -2.661795027123590E-09
 COV  -2.692337718182662E-07 -1.180503782596647E-08  5.132130421196367E-09
 COV  -6.729542635123286E-11  4.014660217793497E-07 -2.954052817651895E-09
 COV   4.834088101060181E-09 -5.949849932319360E-08  3.907807676000755E-09
 COV   2.607786389450559E-04 -2.000238565637190E-06  3.320804142477689E-08
 NOR   1.669379910782219E+08 -1.993054232009788E+03  1.292592558207944E+06
 NOR   6.225835688678505E+04  1.054979018192804E+06  1.687438264968540E+07
 NOR   1.814147111906033E+08 -6.113772562526444E+04  1.907739010612097E+06
 NOR   1.265285660928505E+06  1.404739143830505E+08  2.215823586164530E+08
 NOR  -5.315872969955561E+03 -3.452783671323806E+05 -1.469582102901853E+06
 NOR   2.407671785874534E+08 -2.881037185258287E+05 -4.502590437613936E+07
 NOR   2.356054593073734E+04  1.576501305940030E+06  1.754475634767611E+08
mult_7
! Attributable elements: R.A., DEC, R.A.dot, DECdot, r, rdot, auxiliary information on observer needed
 ATT  245.6805168422237  -16.4148021739792   -0.0543784782354   -0.4002898538534    0.6899032884763   -0.0052914602403
 MJD     53085.283475812 TDT
 MAG  17.572  0.150
! RMS    1.19327E-04   1.28591E-04   7.16530E-05   6.95483E-05   1.61782E-02   1.80751E-04
! EIG   1.12460E-06   1.17235E-06   1.29590E-06   1.35094E-06   1.34274E-04   1.61787E-02
! WEA   0.00010   0.00002  -0.00003   0.00000  -0.99997   0.00748
 COV   1.423886976580807E-08  2.849759968251045E-09 -2.283931867344373E-09
 COV  -2.189101839888543E-11 -1.452927500413773E-06  9.051834288672504E-09
 COV   1.653552032200210E-08 -4.981223089011200E-10 -2.669424087722877E-09
 COV  -2.605728381609903E-07 -1.198044644642390E-08  5.134158409780913E-09
 COV  -6.684012786585796E-11  4.030337170352419E-07 -2.887325074304472E-09
 COV   4.836961317067107E-09 -5.941488681478186E-08  3.920445128118922E-09
 COV   2.617340882320613E-04 -1.957753169549335E-06  3.267075072793094E-08
 NOR   1.669379160949921E+08 -1.961939806536882E+03  1.250372991791480E+06
 NOR   6.225563623087921E+04  1.050406465053279E+06  1.679437660998695E+07
 NOR   1.814149183133623E+08 -6.114423634464054E+04  1.861848559083474E+06
 NOR   1.226974194538029E+06  1.398218948362526E+08  2.216089819663835E+08
 NOR  -5.295867467413065E+03 -3.454805744543802E+05 -1.485685527991731E+06
 NOR   2.407966906485588E+08 -2.796268109424196E+05 -4.498652455260098E+07
 NOR   2.275006442309374E+04  1.525197610592429E+06  1.738909171889120E+08
